[{"OBJECT_NAME":"SAUDISAT 5B","OBJECT_ID":"2018-102C","EPOCH":"2026-03-09T22:59:17.457216","MEAN_MOTION":15.27248504,"ECCENTRICITY":0.00120577,"INCLINATION":97.3281,"RA_OF_ASC_NODE":135.3629,"ARG_OF_PERICENTER":124.0958,"MEAN_ANOMALY":236.1427,"EPHEMERIS_TYPE":0,"CLASSIFICATION_TYPE":"U","NORAD_CAT_ID":43833,"ELEMENT_SET_NO":999,"REV_AT_EPOCH":40064,"BSTAR":0.00024926623,"MEAN_MOTION_DOT":6.596e-5,"MEAN_MOTION_DDOT":0},{"OBJECT_NAME":"STARLINK-36519","OBJECT_ID":"2026-008E","EPOCH":"2026-03-09T09:11:08.446560","MEAN_MOTION":15.27609513,"ECCENTRICITY":0.0001292,"INCLINATION":43.0015,"RA_OF_ASC_NODE":207.0985,"ARG_OF_PERICENTER":222.2698,"MEAN_ANOMALY":137.8054,"EPHEMERIS_TYPE":0,"CLASSIFICATION_TYPE":"U","NORAD_CAT_ID":67449,"ELEMENT_SET_NO":999,"REV_AT_EPOCH":952,"BSTAR":0.0011093725,"MEAN_MOTION_DOT":0.00030419,"MEAN_MOTION_DDOT":0}]
